CCSDS_OMM_VERS = 2.0
CREATION_DATE  = 
ORIGINATOR     = 

OBJECT_NAME    = STARLINK-36411
OBJECT_ID      = 2026-018V
CENTER_NAME    = EARTH
REF_FRAME      = TEME
TIME_SYSTEM    = UTC
MEAN_ELEMENT_THEORY = SGP/SGP4

EPOCH          = 2026-02-07T20:00:03.000384
MEAN_MOTION    = 15.91640562
ECCENTRICITY   = .0001305
INCLINATION    = 97.2763
RA_OF_ASC_NODE = 103.0987
ARG_OF_PERICENTER = 80.7850
MEAN_ANOMALY   = 268.4858

EPHEMERIS_TYPE = 0
CLASSIFICATION_TYPE = U
NORAD_CAT_ID   = 67608
ELEMENT_SET_NO = 999
REV_AT_EPOCH   = 259
BSTAR          = -.60762E-2
MEAN_MOTION_DOT = -.1945294E-1
MEAN_MOTION_DDOT = .1031E-2

CCSDS_OMM_VERS = 2.0
CREATION_DATE  = 
ORIGINATOR     = 

OBJECT_NAME    = STARLINK-36312
OBJECT_ID      = 2026-018W
CENTER_NAME    = EARTH
REF_FRAME      = TEME
TIME_SYSTEM    = UTC
MEAN_ELEMENT_THEORY = SGP/SGP4

EPOCH          = 2026-02-07T20:00:03.000384
MEAN_MOTION    = 15.91846929
ECCENTRICITY   = .0001312
INCLINATION    = 97.2764
RA_OF_ASC_NODE = 103.1006
ARG_OF_PERICENTER = 82.6265
MEAN_ANOMALY   = 270.9706

EPHEMERIS_TYPE = 0
CLASSIFICATION_TYPE = U
NORAD_CAT_ID   = 67609
ELEMENT_SET_NO = 999
REV_AT_EPOCH   = 260
BSTAR          = -.59587E-2
MEAN_MOTION_DOT = -.1928149E-1
MEAN_MOTION_DDOT = .10162E-2

CCSDS_OMM_VERS = 2.0
CREATION_DATE  = 
ORIGINATOR     = 

OBJECT_NAME    = STARLINK-36387
OBJECT_ID      = 2026-018X
CENTER_NAME    = EARTH
REF_FRAME      = TEME
TIME_SYSTEM    = UTC
MEAN_ELEMENT_THEORY = SGP/SGP4

EPOCH          = 2026-02-07T20:00:03.000384
MEAN_MOTION    = 15.92120465
ECCENTRICITY   = .0001353
INCLINATION    = 97.2758
RA_OF_ASC_NODE = 103.1024
ARG_OF_PERICENTER = 78.6304
MEAN_ANOMALY   = 280.1239

EPHEMERIS_TYPE = 0
CLASSIFICATION_TYPE = U
NORAD_CAT_ID   = 67610
ELEMENT_SET_NO = 999
REV_AT_EPOCH   = 260
BSTAR          = -.59152E-2
MEAN_MOTION_DOT = -.1940959E-1
MEAN_MOTION_DDOT = .10318E-2

CCSDS_OMM_VERS = 2.0
CREATION_DATE  = 
ORIGINATOR     = 

OBJECT_NAME    = STARLINK-36636
OBJECT_ID      = 2026-018Y
CENTER_NAME    = EARTH
REF_FRAME      = TEME
TIME_SYSTEM    = UTC
MEAN_ELEMENT_THEORY = SGP/SGP4

EPOCH          = 2026-02-07T20:00:03.000384
MEAN_MOTION    = 15.92301960
ECCENTRICITY   = .0001348
INCLINATION    = 97.2757
RA_OF_ASC_NODE = 103.1044
ARG_OF_PERICENTER = 76.3613
MEAN_ANOMALY   = 286.2401

EPHEMERIS_TYPE = 0
CLASSIFICATION_TYPE = U
NORAD_CAT_ID   = 67611
ELEMENT_SET_NO = 999
REV_AT_EPOCH   = 255
BSTAR          = -.57933E-2
MEAN_MOTION_DOT = -.1919059E-1
MEAN_MOTION_DDOT = .10119E-2

CCSDS_OMM_VERS = 2.0
CREATION_DATE  = 
ORIGINATOR     = 

OBJECT_NAME    = STARLINK-36407
OBJECT_ID      = 2026-018Z
CENTER_NAME    = EARTH
REF_FRAME      = TEME
TIME_SYSTEM    = UTC
MEAN_ELEMENT_THEORY = SGP/SGP4

EPOCH          = 2026-02-07T20:00:03.000384
MEAN_MOTION    = 15.92463322
ECCENTRICITY   = .0001333
INCLINATION    = 97.2757
RA_OF_ASC_NODE = 103.1059
ARG_OF_PERICENTER = 81.4282
MEAN_ANOMALY   = 284.4623

EPHEMERIS_TYPE = 0
CLASSIFICATION_TYPE = U
NORAD_CAT_ID   = 67612
ELEMENT_SET_NO = 999
REV_AT_EPOCH   = 265
BSTAR          = -.57576E-2
MEAN_MOTION_DOT = -.1923111E-1
MEAN_MOTION_DDOT = .10176E-2

CCSDS_OMM_VERS = 2.0
CREATION_DATE  = 
ORIGINATOR     = 

OBJECT_NAME    = STARLINK-36597
OBJECT_ID      = 2026-018AA
CENTER_NAME    = EARTH
REF_FRAME      = TEME
TIME_SYSTEM    = UTC
MEAN_ELEMENT_THEORY = SGP/SGP4

EPOCH          = 2026-02-07T20:00:03.000384
MEAN_MOTION    = 15.92642090
ECCENTRICITY   = .0001358
INCLINATION    = 97.2749
RA_OF_ASC_NODE = 103.1072
ARG_OF_PERICENTER = 81.0569
MEAN_ANOMALY   = 288.4723

EPHEMERIS_TYPE = 0
CLASSIFICATION_TYPE = U
NORAD_CAT_ID   = 67613
ELEMENT_SET_NO = 999
REV_AT_EPOCH   = 255
BSTAR          = -.56874E-2
MEAN_MOTION_DOT = -.1917349E-1
MEAN_MOTION_DDOT = .10138E-2

CCSDS_OMM_VERS = 2.0
CREATION_DATE  = 
ORIGINATOR     = 

OBJECT_NAME    = NEONSAT-1A
OBJECT_ID      = 2026-019A
CENTER_NAME    = EARTH
REF_FRAME      = TEME
TIME_SYSTEM    = UTC
MEAN_ELEMENT_THEORY = SGP/SGP4

EPOCH          = 2026-02-07T20:19:19.477344
MEAN_MOTION    = 15.07570113
ECCENTRICITY   = .0011859
INCLINATION    = 97.4088
RA_OF_ASC_NODE = 163.5009
ARG_OF_PERICENTER = 277.3704
MEAN_ANOMALY   = 82.6177

EPHEMERIS_TYPE = 0
CLASSIFICATION_TYPE = U
NORAD_CAT_ID   = 67614
ELEMENT_SET_NO = 999
REV_AT_EPOCH   = 132
BSTAR          = .252E-3
MEAN_MOTION_DOT = .3777E-4
MEAN_MOTION_DDOT = 0

CCSDS_OMM_VERS = 2.0
CREATION_DATE  = 
ORIGINATOR     = 

OBJECT_NAME    = ELECTRON R/B
OBJECT_ID      = 2026-019B
CENTER_NAME    = EARTH
REF_FRAME      = TEME
TIME_SYSTEM    = UTC
MEAN_ELEMENT_THEORY = SGP/SGP4

EPOCH          = 2026-02-07T15:25:59.324736
MEAN_MOTION    = 15.96783440
ECCENTRICITY   = .0162998
INCLINATION    = 97.4296
RA_OF_ASC_NODE = 164.3195
ARG_OF_PERICENTER = 196.2053
MEAN_ANOMALY   = 163.3978

EPHEMERIS_TYPE = 0
CLASSIFICATION_TYPE = U
NORAD_CAT_ID   = 67615
ELEMENT_SET_NO = 999
REV_AT_EPOCH   = 135
BSTAR          = .15306E-2
MEAN_MOTION_DOT = .2871216E-1
MEAN_MOTION_DDOT = .21678E-5

CCSDS_OMM_VERS = 2.0
CREATION_DATE  = 
ORIGINATOR     = 

OBJECT_NAME    = ELECTRON KICK STAGE R/B
OBJECT_ID      = 2026-019C
CENTER_NAME    = EARTH
REF_FRAME      = TEME
TIME_SYSTEM    = UTC
MEAN_ELEMENT_THEORY = SGP/SGP4

EPOCH          = 2026-02-07T20:00:33.877152
MEAN_MOTION    = 15.58464795
ECCENTRICITY   = .0193223
INCLINATION    = 97.4060
RA_OF_ASC_NODE = 164.1241
ARG_OF_PERICENTER = 230.6245
MEAN_ANOMALY   = 127.7759

EPHEMERIS_TYPE = 0
CLASSIFICATION_TYPE = U
NORAD_CAT_ID   = 67616
ELEMENT_SET_NO = 999
REV_AT_EPOCH   = 136
BSTAR          = .19726E-2
MEAN_MOTION_DOT = .373544E-2
MEAN_MOTION_DDOT = .39596E-4

CCSDS_OMM_VERS = 2.0
CREATION_DATE  = 
ORIGINATOR     = 

OBJECT_NAME    = STARLINK-36548
OBJECT_ID      = 2026-020A
CENTER_NAME    = EARTH
REF_FRAME      = TEME
TIME_SYSTEM    = UTC
MEAN_ELEMENT_THEORY = SGP/SGP4

EPOCH          = 2026-02-07T20:00:03.000384
MEAN_MOTION    = 15.85237892
ECCENTRICITY   = .0002013
INCLINATION    = 42.9993
RA_OF_ASC_NODE = 323.8597
ARG_OF_PERICENTER = 264.2167
MEAN_ANOMALY   = 14.2445

EPHEMERIS_TYPE = 0
CLASSIFICATION_TYPE = U
NORAD_CAT_ID   = 67617
ELEMENT_SET_NO = 999
REV_AT_EPOCH   = 259
BSTAR          = -.74046E-2
MEAN_MOTION_DOT = -.15938E-1
MEAN_MOTION_DDOT = 0

CCSDS_OMM_VERS = 2.0
CREATION_DATE  = 
ORIGINATOR     = 

OBJECT_NAME    = STARLINK-36601
OBJECT_ID      = 2026-020B
CENTER_NAME    = EARTH
REF_FRAME      = TEME
TIME_SYSTEM    = UTC
MEAN_ELEMENT_THEORY = SGP/SGP4

EPOCH          = 2026-02-07T20:00:03.000384
MEAN_MOTION    = 15.85489313
ECCENTRICITY   = .0001714
INCLINATION    = 42.9996
RA_OF_ASC_NODE = 323.8537
ARG_OF_PERICENTER = 254.0102
MEAN_ANOMALY   = 26.8874

EPHEMERIS_TYPE = 0
CLASSIFICATION_TYPE = U
NORAD_CAT_ID   = 67618
ELEMENT_SET_NO = 999
REV_AT_EPOCH   = 259
BSTAR          = -.79197E-2
MEAN_MOTION_DOT = -.1707598E-1
MEAN_MOTION_DDOT = 0

CCSDS_OMM_VERS = 2.0
CREATION_DATE  = 
ORIGINATOR     = 

OBJECT_NAME    = STARLINK-36119
OBJECT_ID      = 2026-020C
CENTER_NAME    = EARTH
REF_FRAME      = TEME
TIME_SYSTEM    = UTC
MEAN_ELEMENT_THEORY = SGP/SGP4

EPOCH          = 2026-02-07T20:00:03.000384
MEAN_MOTION    = 15.85576658
ECCENTRICITY   = .0001583
INCLINATION    = 42.9995
RA_OF_ASC_NODE = 323.8489
ARG_OF_PERICENTER = 253.0825
MEAN_ANOMALY   = 29.6761

EPHEMERIS_TYPE = 0
CLASSIFICATION_TYPE = U
NORAD_CAT_ID   = 67619
ELEMENT_SET_NO = 999
REV_AT_EPOCH   = 259
BSTAR          = -.78975E-2
MEAN_MOTION_DOT = -.1709663E-1
MEAN_MOTION_DDOT = 0

