STARLINK-36411          
1 67608U 26018V   26038.83336806 -.01945294  10310-2 -60762-2 0  9996
2 67608  97.2763 103.0987 0001305  80.7850 268.4858 15.91640562  2594
STARLINK-36312          
1 67609U 26018W   26038.83336806 -.01928149  10162-2 -59587-2 0  9995
2 67609  97.2764 103.1006 0001312  82.6265 270.9706 15.91846929  2605
STARLINK-36387          
1 67610U 26018X   26038.83336806 -.01940959  10318-2 -59152-2 0  9991
2 67610  97.2758 103.1024 0001353  78.6304 280.1239 15.92120465  2609
STARLINK-36636          
1 67611U 26018Y   26038.83336806 -.01919059  10119-2 -57933-2 0  9993
2 67611  97.2757 103.1044 0001348  76.3613 286.2401 15.92301960  2556
STARLINK-36407          
1 67612U 26018Z   26038.83336806 -.01923111  10176-2 -57576-2 0  9994
2 67612  97.2757 103.1059 0001333  81.4282 284.4623 15.92463322  2654
STARLINK-36597          
1 67613U 26018AA  26038.83336806 -.01917349  10138-2 -56874-2 0  9999
2 67613  97.2749 103.1072 0001358  81.0569 288.4723 15.92642090  2557
NEONSAT-1A              
1 67614U 26019A   26038.84675321  .00003777  00000+0  25200-3 0  9992
2 67614  97.4088 163.5009 0011859 277.3704  82.6177 15.07570113  1327
ELECTRON R/B            
1 67615U 26019B   26038.64304774  .02871216  21678-5  15306-2 0  9990
2 67615  97.4296 164.3195 0162998 196.2053 163.3978 15.96783440  1357
ELECTRON KICK STAGE R/B 
1 67616U 26019C   26038.83372543  .00373544  39596-4  19726-2 0  9997
2 67616  97.4060 164.1241 0193223 230.6245 127.7759 15.58464795  1367
STARLINK-36548          
1 67617U 26020A   26038.83336806 -.01593800  00000+0 -74046-2 0  9993
2 67617  42.9993 323.8597 0002013 264.2167  14.2445 15.85237892  2592
STARLINK-36601          
1 67618U 26020B   26038.83336806 -.01707598  00000+0 -79197-2 0  9997
2 67618  42.9996 323.8537 0001714 254.0102  26.8874 15.85489313  2595
STARLINK-36119          
1 67619U 26020C   26038.83336806 -.01709663  00000+0 -78975-2 0  9996
2 67619  42.9995 323.8489 0001583 253.0825  29.6761 15.85576658  2591
